NORAD_CAT_ID,OBJECT_NAME,OBJECT_TYPE,EPOCH,MEAN_MOTION,ECCENTRICITY,INCLINATION,RA_OF_ASC_NODE,ARG_OF_PERICENTER,MEAN_ANOMALY,BSTAR,MEAN_MOTION_DOT,MEAN_MOTION_DDOT,TLE_LINE0,TLE_LINE1,TLE_LINE2,SEMIMAJOR_AXIS,PERIOD,APOGEE,PERIGEE,DECAYED
53730.0,STARLINK-4641,PAYLOAD,2023-12-25 01:57:05,15.08854195,0.0001469,53.2168,270.671,85.4572,274.6588,0.0003005,4.5e-05,0.0,0 STARLINK-4641,1 53730U 22107AG  23359.08131808  .00004500  00000-0  30050-3 0  9991,2 53730  53.2168 270.6710 0001469  85.4572 274.6588 15.08854195 72330,6917.837,95.437,540.718,538.686,0.0
53730.0,STARLINK-4641,PAYLOAD,2023-12-25 22:37:09,15.08816914,0.0001644,53.2169,266.8042,76.3168,283.8007,-0.00023086,-3.958e-05,0.0,0 STARLINK-4641,1 53730U 22107AG  23359.94246690 -.00003958  00000-0 -23086-3 0  9991,2 53730  53.2169 266.8042 0001644  76.3168 283.8007 15.08816914 73067,6917.951,95.439,540.953,538.679,0.0
53730.0,STARLINK-4641,PAYLOAD,2023-12-26 03:23:17,15.08838798,0.0001568,53.2168,265.9119,81.8114,278.3056,0.00012457,1.695e-05,0.0,0 STARLINK-4641,1 53730U 22107AG  23360.14117956  .00001695  00000-0  12457-3 0  9991,2 53730  53.2168 265.9119 0001568  81.8114 278.3056 15.08838798 72491,6917.884,95.438,540.834,538.664,0.0
53730.0,STARLINK-4641,PAYLOAD,2023-12-26 22:27:54,15.08861471,0.0001643,53.217,262.3409,100.7336,259.3841,0.00029166,4.359e-05,0.0,0 STARLINK-4641,1 53730U 22107AG  23360.93604618  .00004359  00000-0  29166-3 0  9999,2 53730  53.2170 262.3409 0001643 100.7336 259.3841 15.08861471 73214,6917.815,95.436,540.816,538.543,0.0
53730.0,STARLINK-4641,PAYLOAD,2023-12-27 00:03:17,15.08864699,0.0001687,53.2174,262.0435,92.2201,267.8984,0.0003861,5.866e-05,0.0,0 STARLINK-4641,1 53730U 22107AG  23361.00228588  .00005866  00000-0  38610-3 0  9994,2 53730  53.2174 262.0435 0001687  92.2201 267.8984 15.08864699 72629,6917.805,95.436,540.837,538.503,0.0
53730.0,STARLINK-4641,PAYLOAD,2023-12-27 22:18:41,15.08856665,0.0001323,53.2159,257.8888,74.3658,285.748,0.00016963,2.414e-05,0.0,0 STARLINK-4641,1 53730U 22107AG  23361.92964863  .00002414  00000-0  16963-3 0  9991,2 53730  53.2159 257.8888 0001323  74.3658 285.7480 15.08856665 73366,6917.829,95.437,540.61,538.779,0.0
53730.0,STARLINK-4641,PAYLOAD,2023-12-27 23:54:04,15.08857415,0.0001984,53.217,257.5915,53.8198,306.2978,0.00018274,2.623e-05,0.0,0 STARLINK-4641,1 53730U 22107AG  23361.99589025  .00002623  00000-0  18274-3 0  9990,2 53730  53.2170 257.5915 0001984  53.8198 306.2978 15.08857415 72770,6917.827,95.436,541.065,538.32,0.0
53730.0,STARLINK-4641,PAYLOAD,2023-12-28 20:34:05,15.08844079,0.0001433,53.2157,253.7253,88.5393,271.5764,-0.00010564,-1.969e-05,0.0,0 STARLINK-4641,1 53730U 22107AG  23362.85700762 -.00001969  00000-0 -10564-3 0  9997,2 53730  53.2157 253.7253 0001433  88.5393 271.5764 15.08844079 73500,6917.868,95.437,540.724,538.742,0.0
53730.0,STARLINK-4641,PAYLOAD,2023-12-29 02:55:37,15.08850256,0.0001669,53.2166,252.532,77.6214,282.4964,-0.00015538,-2.761e-05,0.0,0 STARLINK-4641,1 53730U 22107AG  23363.12196475 -.00002761  00000-0 -15538-3 0  9995,2 53730  53.2166 252.5320 0001669  77.6214 282.4964 15.08850256 72948,6917.849,95.437,540.869,538.559,0.0
53730.0,STARLINK-4641,PAYLOAD,2023-12-29 18:49:29,15.08842113,0.0001448,53.2152,249.5572,95.6422,264.4736,-9.146e-05,-1.743e-05,0.0,0 STARLINK-4641,1 53730U 22107AG  23363.78436760 -.00001743  00000-0 -91460-4 0  9999,2 53730  53.2152 249.5572 0001448  95.6422 264.4736 15.08842113 73046,6917.874,95.437,540.741,538.737,0.0
53730.0,STARLINK-4641,PAYLOAD,2023-12-29 22:00:15,15.08844642,0.0001361,53.2157,248.9646,76.4809,283.6335,4.9593e-06,-2.09e-06,0.0,0 STARLINK-4641,1 53730U 22107AG  23363.91684810 -.00000209  00000-0  49593-5 0  9991,2 53730  53.2157 248.9646 0001361  76.4809 283.6335 15.08844642 73661,6917.866,95.437,540.673,538.79,0.0
53730.0,STARLINK-4641,PAYLOAD,2023-12-29 23:35:38,15.08846563,0.0001357,53.2161,248.667,76.6062,283.5081,1.351e-05,-7.3e-07,0.0,0 STARLINK-4641,1 53730U 22107AG  23363.98308640 -.00000073  00000-0  13510-4 0  9990,2 53730  53.2161 248.6670 0001357  76.6062 283.5081 15.08846563 73670,6917.86,95.437,540.664,538.787,0.0
53730.0,STARLINK-4641,PAYLOAD,2023-12-30 20:15:39,15.08842067,0.0001371,53.2156,244.8011,119.5026,240.6103,4.116e-05,3.67e-06,0.0,0 STARLINK-4641,1 53730U 22107AG  23364.84420902  .00000367  00000-0  41160-4 0  9999,2 53730  53.2156 244.8011 0001371 119.5026 240.6103 15.08842067 73207,6917.874,95.437,540.688,538.791,0.0
53730.0,STARLINK-4641,PAYLOAD,2023-12-30 21:51:02,15.08841797,0.0001351,53.2157,244.5037,116.1992,243.914,3.784e-05,3.14e-06,0.0,0 STARLINK-4641,1 53730U 22107AG  23364.91044868  .00000314  00000-0  37840-4 0  9992,2 53730  53.2157 244.5037 0001351 116.1992 243.9140 15.08841797 73819,6917.875,95.437,540.675,538.805,0.0
53730.0,STARLINK-4641,PAYLOAD,2023-12-31 20:06:27,15.0883375,0.000144,53.2159,240.3388,100.3209,259.7945,7.3278e-05,8.78e-06,0.0,0 STARLINK-4641,1 53730U 22107AG  23365.83781514  .00000878  00000-0  73278-4 0  9990,2 53730  53.2159 240.3388 0001440 100.3209 259.7945 15.08833750 73356,6917.899,95.438,540.761,538.768,0.0
53730.0,STARLINK-4641,PAYLOAD,2023-12-31 21:41:50,15.08827379,0.0001403,53.2159,240.0415,105.052,255.0628,0.00015819,2.23e-05,0.0,0 STARLINK-4641,1 53730U 22107AG  23365.90405610  .00002230  00000-0  15819-3 0  9998,2 53730  53.2159 240.0415 0001403 105.0520 255.0628 15.08827379 73965,6917.919,95.438,540.755,538.813,0.0
53730.0,STARLINK-4641,PAYLOAD,2024-01-01 19:57:13,15.08847689,0.0001416,53.2159,235.8787,89.1002,271.0153,9.3547e-05,1.201e-05,0.0,0 STARLINK-4641,1 53730U 22107AG  24001.83140581  .00001201  00000-0  93547-4 0  9993,2 53730  53.2159 235.8787 0001416  89.1002 271.0153 15.08847689 73507,6917.857,95.437,540.701,538.742,0.0
53730.0,STARLINK-4641,PAYLOAD,2024-01-01 21:32:36,15.08849119,0.0001427,53.2158,235.5814,88.8518,271.2638,0.00010532,1.389e-05,0.0,0 STARLINK-4641,1 53730U 22107AG  24001.89764447  .00001389  00000-0  10532-3 0  9991,2 53730  53.2158 235.5814 0001427  88.8518 271.2638 15.08849119 74112,6917.853,95.437,540.705,538.73,0.0
53730.0,STARLINK-4641,PAYLOAD,2024-01-02 00:43:22,15.08851687,0.0001433,53.2159,234.9865,88.2132,271.9025,0.00012579,1.715e-05,0.0,0 STARLINK-4641,1 53730U 22107AG  24002.03012181  .00001715  00000-0  12579-3 0  9995,2 53730  53.2159 234.9865 0001433  88.2132 271.9025 15.08851687 74137,6917.845,95.437,540.701,538.718,0.0
53730.0,STARLINK-4641,PAYLOAD,2024-01-02 15:01:51,15.08840783,0.0001508,53.2162,232.309,80.2807,279.8355,7.7932e-05,9.53e-06,0.0,0 STARLINK-4641,1 53730U 22107AG  24002.62628945  .00000953  00000-0  77932-4 0  9999,2 53730  53.2162 232.3090 0001508  80.2807 279.8355 15.08840783 73628,6917.878,95.438,540.786,538.7,0.0
53730.0,STARLINK-4641,PAYLOAD,2024-01-02 21:23:23,15.08844264,0.0001489,53.2161,231.1193,82.2414,277.8747,9.9097e-05,1.29e-05,0.0,0 STARLINK-4641,1 53730U 22107AG  24002.89124578  .00001290  00000-0  99097-4 0  9992,2 53730  53.2161 231.1193 0001489  82.2414 277.8747 15.08844264 74264,6917.867,95.437,540.762,538.702,0.0
53730.0,STARLINK-4641,PAYLOAD,2024-01-03 19:38:47,15.08845534,0.0001353,53.216,226.9504,95.1301,264.9845,-9.0855e-05,-1.734e-05,0.0,0 STARLINK-4641,1 53730U 22107AG  24003.81860775 -.00001734  00000-0 -90855-4 0  9999,2 53730  53.2160 226.9504 0001353  95.1301 264.9845 15.08845534 73805,6917.863,95.437,540.664,538.792,0.0
53730.0,STARLINK-4641,PAYLOAD,2024-01-03 21:14:10,15.08846851,0.0001366,53.216,226.654,96.5763,263.5385,-8.1845e-05,-1.591e-05,0.0,0 STARLINK-4641,1 53730U 22107AG  24003.88484659 -.00001591  00000-0 -81845-4 0  9999,2 53730  53.2160 226.6540 0001366  96.5763 263.5385 15.08846851 74418,6917.859,95.437,540.669,538.779,0.0
53730.0,STARLINK-4641,PAYLOAD,2024-01-04 14:43:25,15.08839302,0.0001399,53.215,223.391,83.5096,276.6055,1.4242e-05,-6.1e-07,0.0,0 STARLINK-4641,1 53730U 22107AG  24004.61348910 -.00000061  00000-0  14242-4 0  9997,2 53730  53.2150 223.3910 0001399  83.5096 276.6055 15.08839302 74527,6917.883,95.438,540.715,538.78,0.0
53730.0,STARLINK-4641,PAYLOAD,2024-01-04 21:04:57,15.08840721,0.0001407,53.2148,222.2015,84.2814,275.8339,2.3303e-05,8.3e-07,0.0,0 STARLINK-4641,1 53730U 22107AG  24004.87844767  .00000083  00000-0  23303-4 0  9997,2 53730  53.2148 222.2015 0001407  84.2814 275.8339 15.08840721 73964,6917.878,95.438,540.717,538.77,0.0
53730.0,STARLINK-4641,PAYLOAD,2024-01-05 14:34:13,15.08831863,0.0001457,53.2143,218.9298,85.1061,275.0097,2.0792e-05,4.3e-07,0.0,0 STARLINK-4641,1 53730U 22107AG  24005.60709542  .00000043  00000-0  20792-4 0  9995,2 53730  53.2143 218.9298 0001457  85.1061 275.0097 15.08831863 74672,6917.905,95.438,540.778,538.762,0.0
53730.0,STARLINK-4641,PAYLOAD,2024-01-05 19:20:22,15.08831381,0.0001472,53.2155,218.0372,100.8258,259.2899,1.4663e-05,-5.5e-07,0.0,0 STARLINK-4641,1 53730U 22107AG  24005.80581604 -.00000055  00000-0  14663-4 0  9998,2 53730  53.2155 218.0372 0001472 100.8258 259.2899 15.08831381 74106,6917.907,95.438,540.79,538.753,0.0
53730.0,STARLINK-4641,PAYLOAD,2024-01-06 09:38:50,15.08836365,0.0001503,53.2151,215.3606,109.3354,250.7801,2.4683e-05,1.05e-06,0.0,0 STARLINK-4641,1 53730U 22107AG  24006.40197469  .00000105  00000-0  24683-4 0  9995,2 53730  53.2151 215.3606 0001503 109.3354 250.7801 15.08836365 74799,6917.891,95.438,540.796,538.717,0.0
53730.0,STARLINK-4641,PAYLOAD,2024-01-06 19:11:09,15.08837578,0.0001405,53.2151,213.5764,101.9944,258.1206,3.0898e-05,2.04e-06,0.0,0 STARLINK-4641,1 53730U 22107AG  24006.79941499  .00000204  00000-0  30898-4 0  9992,2 53730  53.2151 213.5764 0001405 101.9944 258.1206 15.08837578 74853,6917.888,95.438,540.725,538.781,0.0
53730.0,STARLINK-4641,PAYLOAD,2024-01-06 23:57:18,15.08836578,0.0001399,53.2151,212.6846,101.1375,258.9774,2.1864e-05,6e-07,0.0,0 STARLINK-4641,1 53730U 22107AG  24006.99813615  .00000060  00000-0  21864-4 0  9995,2 53730  53.2151 212.6846 0001399 101.1375 258.9774 15.08836578 74280,6917.891,95.438,540.724,538.788,0.0
